NORAD_CAT_ID,OBJECT_NAME,OBJECT_TYPE,EPOCH,MEAN_MOTION,ECCENTRICITY,INCLINATION,RA_OF_ASC_NODE,ARG_OF_PERICENTER,MEAN_ANOMALY,BSTAR,MEAN_MOTION_DOT,MEAN_MOTION_DDOT,TLE_LINE0,TLE_LINE1,TLE_LINE2,SEMIMAJOR_AXIS,PERIOD,APOGEE,PERIGEE,DECAYED
54780.0,STARLINK-5449,PAYLOAD,2024-02-27 03:36:55,15.08842599,0.0001451,53.2166,117.924,81.8782,278.2375,-1.711e-05,-5.6e-06,0.0,0 STARLINK-5449,1 54780U 22175Y   24058.15063810 -.00000560  00000-0 -17110-4 0  9991,2 54780  53.2166 117.9240 0001451  81.8782 278.2375 15.08842599 66027,6917.872,95.437,540.741,538.734,0.0
54780.0,STARLINK-5449,PAYLOAD,2024-02-27 11:33:50,15.08849746,0.0001551,53.2174,116.4392,88.5433,271.5737,5.8208e-05,6.39e-06,0.0,0 STARLINK-5449,1 54780U 22175Y   24058.48183007  .00000639  00000-0  58208-4 0  9996,2 54780  53.2174 116.4392 0001551  88.5433 271.5737 15.08849746 66070,6917.851,95.437,540.789,538.643,0.0
54780.0,STARLINK-5449,PAYLOAD,2024-02-28 03:27:41,15.08835135,0.0001652,53.2171,113.4659,81.7398,278.3782,0.0001524,2.138e-05,0.0,0 STARLINK-5449,1 54780U 22175Y   24059.14423583  .00002138  00000-0  15240-3 0  9990,2 54780  53.2171 113.4659 0001652  81.7398 278.3782 15.08835135 66170,6917.895,95.438,540.903,538.617,0.0
54780.0,STARLINK-5449,PAYLOAD,2024-02-28 09:49:14,15.08836249,0.0001554,53.2166,112.2751,86.0888,274.0282,0.00016107,2.276e-05,0.0,0 STARLINK-5449,1 54780U 22175Y   24059.40919493  .00002276  00000-0  16107-3 0  9995,2 54780  53.2166 112.2751 0001554  86.0888 274.0282 15.08836249 68376,6917.892,95.438,540.832,538.682,0.0
54780.0,STARLINK-5449,PAYLOAD,2024-02-28 20:56:56,15.0883984,0.0001599,53.2167,110.1935,82.8129,277.3045,6.1155e-05,6.85e-06,0.0,0 STARLINK-5449,1 54780U 22175Y   24059.87287580  .00000685  00000-0  61155-4 0  9997,2 54780  53.2167 110.1935 0001599  82.8129 277.3045 15.08839840 68440,6917.881,95.438,540.852,538.64,0.0
54780.0,STARLINK-5449,PAYLOAD,2024-02-29 09:40:01,15.08845722,0.0001586,53.2167,107.8137,91.1882,268.9292,-1.0405e-05,-4.54e-06,0.0,0 STARLINK-5449,1 54780U 22175Y   24060.40279326 -.00000454  00000-0 -10405-4 0  9995,2 54780  53.2167 107.8137 0001586  91.1882 268.9292 15.08845722 66367,6917.863,95.437,540.825,538.631,0.0
54780.0,STARLINK-5449,PAYLOAD,2024-02-29 12:50:47,15.08847388,0.0001595,53.2166,107.2186,91.4201,268.6974,-2.8678e-06,-3.34e-06,0.0,0 STARLINK-5449,1 54780U 22175Y   24060.53527121 -.00000334  00000-0 -28678-5 0  9997,2 54780  53.2166 107.2186 0001595  91.4201 268.6974 15.08847388 68548,6917.858,95.437,540.826,538.619,0.0
54780.0,STARLINK-5449,PAYLOAD,2024-03-01 09:30:48,15.08840081,0.0001594,53.2164,103.3506,102.4204,257.6967,2.7561e-05,1.51e-06,0.0,0 STARLINK-5449,1 54780U 22175Y   24061.39639460  .00000151  00000-0  27561-4 0  9996,2 54780  53.2164 103.3506 0001594 102.4204 257.6967 15.08840081 66512,6917.88,95.438,540.848,538.642,0.0
54780.0,STARLINK-5449,PAYLOAD,2024-03-02 07:46:12,15.0884008,0.0001497,53.2166,99.1889,93.6755,266.4409,3.9389e-05,3.39e-06,0.0,0 STARLINK-5449,1 54780U 22175Y   24062.32375423  .00000339  00000-0  39389-4 0  9995,2 54780  53.2166  99.1889 0001497  93.6755 266.4409 15.08840080 68817,6917.88,95.438,540.781,538.71,0.0
54780.0,STARLINK-5449,PAYLOAD,2024-03-03 02:50:50,15.08835241,0.0001421,53.2167,95.6232,92.7882,267.3272,-9.1219e-06,-4.33e-06,0.0,0 STARLINK-5449,1 54780U 22175Y   24063.11864123 -.00000433  00000-0 -91219-5 0  9991,2 54780  53.2167  95.6232 0001421  92.7882 267.3272 15.08835241 66773,6917.895,95.438,540.743,538.777,0.0
54780.0,STARLINK-5449,PAYLOAD,2024-03-03 09:12:23,15.08833017,0.0001446,53.2169,94.4328,91.9174,268.1984,-2.6418e-05,-7.08e-06,0.0,0 STARLINK-5449,1 54780U 22175Y   24063.38360404 -.00000708  00000-0 -26418-4 0  9996,2 54780  53.2169  94.4328 0001446  91.9174 268.1984 15.08833017 68972,6917.902,95.438,540.767,538.766,0.0
54780.0,STARLINK-5449,PAYLOAD,2024-03-04 10:38:31,15.08853779,0.0001499,53.217,89.6746,90.7016,269.4147,0.00018227,2.615e-05,0.0,0 STARLINK-5449,1 54780U 22175Y   24064.44342513  .00002615  00000-0  18227-3 0  9990,2 54780  53.2170  89.6746 0001499  90.7016 269.4147 15.08853779 66974,6917.838,95.437,540.74,538.666,0.0
54780.0,STARLINK-5449,PAYLOAD,2024-03-04 18:35:29,15.08831661,0.0002053,53.2159,88.1857,85.4679,274.6548,1.8187e-05,1e-08,0.0,0 STARLINK-5449,1 54780U 22175Y   24064.77464618  .00000001  00000-0  18187-4 0  9990,2 54780  53.2159  88.1857 0002053  85.4679 274.6548 15.08831661 67027,6917.906,95.438,541.191,538.351,0.0
54780.0,STARLINK-5449,PAYLOAD,2024-03-05 10:29:21,15.08826726,0.0001592,53.2169,85.2141,94.2013,265.9161,2.0448e-05,3.7e-07,0.0,0 STARLINK-5449,1 54780U 22175Y   24065.43705332  .00000037  00000-0  20448-4 0  9997,2 54780  53.2169  85.2141 0001592  94.2013 265.9161 15.08826726 69289,6917.921,95.438,540.887,538.685,0.0
54780.0,STARLINK-5449,PAYLOAD,2024-03-05 18:26:16,15.08833042,0.0001575,53.2169,83.7272,95.263,264.8542,7.271e-05,8.69e-06,0.0,0 STARLINK-5449,1 54780U 22175Y   24065.76825158  .00000869  00000-0  72710-4 0  9994,2 54780  53.2169  83.7272 0001575  95.2630 264.8542 15.08833042 67170,6917.902,95.438,540.856,538.677,0.0
54780.0,STARLINK-5449,PAYLOAD,2024-03-06 10:20:07,15.08846027,0.0001592,53.2159,80.7533,99.2431,260.8741,0.00029015,4.333e-05,0.0,0 STARLINK-5449,1 54780U 22175Y   24066.43064522  .00004333  00000-0  29015-3 0  9998,2 54780  53.2159  80.7533 0001592  99.2431 260.8741 15.08846027 67273,6917.862,95.437,540.828,538.626,0.0
54780.0,STARLINK-5449,PAYLOAD,2024-03-07 10:10:54,15.08856979,0.00016,53.2158,76.291,102.3299,257.7872,0.0004977,7.645e-05,0.0,0 STARLINK-5449,1 54780U 22175Y   24067.42424212  .00007645  00000-0  49770-3 0  9993,2 54780  53.2158  76.2910 0001600 102.3299 257.7872 15.08856979 69582,6917.828,95.436,540.8,538.587,0.0
54780.0,STARLINK-5449,PAYLOAD,2024-03-08 00:29:22,15.08855188,0.0002596,53.2165,73.6117,100.3627,259.7657,0.000318,4.778e-05,0.0,0 STARLINK-5449,1 54780U 22175Y   24068.02040094  .00004778  00000-0  31800-3 0  9991,2 54780  53.2165  73.6117 0002596 100.3627 259.7657 15.08855188 67513,6917.834,95.437,541.495,537.903,0.0
54780.0,STARLINK-5449,PAYLOAD,2024-03-08 03:40:09,15.08845392,0.0001855,53.2159,73.0178,106.7254,253.3942,8.1657e-05,1.012e-05,0.0,0 STARLINK-5449,1 54780U 22175Y   24068.15288237  .00001012  00000-0  81657-4 0  9992,2 54780  53.2159  73.0178 0001855 106.7254 253.3942 15.08845392 67535,6917.864,95.437,541.012,538.446,0.0
54780.0,STARLINK-5449,PAYLOAD,2024-03-08 10:01:41,15.08842113,0.0001695,53.2161,71.8308,93.2944,266.8242,7.3784e-05,8.86e-06,0.0,0 STARLINK-5449,1 54780U 22175Y   24068.41784345  .00000886  00000-0  73784-4 0  9992,2 54780  53.2161  71.8308 0001695  93.2944 266.8242 15.08842113 69731,6917.874,95.437,540.912,538.566,0.0
54780.0,STARLINK-5449,PAYLOAD,2024-03-09 03:30:56,15.0883777,0.0001666,53.2163,68.5591,94.222,265.8962,5.9898e-05,6.65e-06,0.0,0 STARLINK-5449,1 54780U 22175Y   24069.14648713  .00000665  00000-0  59898-4 0  9996,2 54780  53.2163  68.5591 0001666  94.2220 265.8962 15.08837770 67689,6917.887,95.438,540.905,538.6,0.0
54780.0,STARLINK-5449,PAYLOAD,2024-03-09 06:41:42,15.08841737,0.000156,53.2165,67.9632,96.0669,264.0501,0.00010174,1.332e-05,0.0,0 STARLINK-5449,1 54780U 22175Y   24069.27896610  .00001332  00000-0  10174-3 0  9996,2 54780  53.2165  67.9632 0001560  96.0669 264.0501 15.08841737 69860,6917.875,95.437,540.819,538.661,0.0
54780.0,STARLINK-5449,PAYLOAD,2024-03-09 16:14:01,15.08843114,0.0001592,53.2165,66.1793,93.8939,266.2235,0.00020633,2.998e-05,0.0,0 STARLINK-5449,1 54780U 22175Y   24069.67640641  .00002998  00000-0  20633-3 0  9991,2 54780  53.2165  66.1793 0001592  93.8939 266.2235 15.08843114 69925,6917.871,95.437,540.837,538.635,0.0
54780.0,STARLINK-5449,PAYLOAD,2024-03-10 06:32:30,15.08837729,0.000146,53.2175,63.5068,96.3187,263.7972,0.00021576,3.147e-05,0.0,0 STARLINK-5449,1 54780U 22175Y   24070.27257132  .00003147  00000-0  21576-3 0  9992,2 54780  53.2175  63.5068 0001460  96.3187 263.7972 15.08837729 67854,6917.887,95.438,540.762,538.742,0.0
54780.0,STARLINK-5449,PAYLOAD,2024-03-10 16:04:48,15.08846225,0.0001542,53.2177,61.7216,95.8732,264.2436,0.00026012,3.855e-05,0.0,0 STARLINK-5449,1 54780U 22175Y   24070.67000811  .00003855  00000-0  26012-3 0  9992,2 54780  53.2177  61.7216 0001542  95.8732 264.2436 15.08846225 70072,6917.861,95.437,540.793,538.66,0.0
54780.0,STARLINK-5449,PAYLOAD,2024-03-11 06:23:17,15.08840801,0.000153,53.2172,59.0455,95.4393,264.6774,0.00015413,2.166e-05,0.0,0 STARLINK-5449,1 54780U 22175Y   24071.26617075  .00002166  00000-0  15413-3 0  9991,2 54780  53.2172  59.0455 0001530  95.4393 264.6774 15.08840801 70161,6917.878,95.438,540.801,538.685,0.0
54780.0,STARLINK-5449,PAYLOAD,2024-03-11 15:55:35,15.08852106,0.0001525,53.2176,57.2607,90.6257,269.491,0.00039662,6.032e-05,0.0,0 STARLINK-5449,1 54780U 22175Y   24071.66360702  .00006032  00000-0  39662-3 0  9995,2 54780  53.2176  57.2607 0001525  90.6257 269.4910 15.08852106 68066,6917.843,95.437,540.763,538.653,0.0
54780.0,STARLINK-5449,PAYLOAD,2024-03-12 04:38:41,15.08835361,0.0001865,53.2194,54.8838,90.7477,269.3729,-3.3483e-05,-8.21e-06,0.0,0 STARLINK-5449,1 54780U 22175Y   24072.19353296 -.00000821  00000-0 -33483-4 0  9992,2 54780  53.2194  54.8838 0001865  90.7477 269.3729 15.08835361 68147,6917.895,95.438,541.05,538.469,0.0
54780.0,STARLINK-5449,PAYLOAD,2024-03-12 22:07:55,15.08841476,0.000165,53.2181,51.6121,89.7467,270.3714,0.00015357,2.157e-05,0.0,0 STARLINK-5449,1 54780U 22175Y   24072.92217241  .00002157  00000-0  15357-3 0  9993,2 54780  53.2181  51.6121 0001650  89.7467 270.3714 15.08841476 70415,6917.876,95.437,540.882,538.599,0.0
54780.0,STARLINK-5449,PAYLOAD,2024-03-13 06:04:51,15.08842111,0.0001533,53.2179,50.1252,91.1212,268.9956,0.00014116,1.959e-05,0.0,0 STARLINK-5449,1 54780U 22175Y   24073.25337192  .00001959  00000-0  14116-3 0  9999,2 54780  53.2179  50.1252 0001533  91.1212 268.9956 15.08842111 68309,6917.874,95.437,540.799,538.678,0.0
